{
  "type": "FeatureCollection",
  "generator": "overpass-ide",
  "copyright": "The data included in this document is from www.openstreetmap.org. The data is made available under ODbL.",
  "timestamp": "2020-12-28T15:34:03Z",
  "features": [
    {
      "type": "Feature",
      "properties": {
        "@id": "node/296766563",
        "addr:conscriptionnumber": "459",
        "addr:housenumber": "459/13",
        "addr:postcode": "10000",
        "addr:street": "Konopišťská",
        "addr:streetnumber": "13",
        "source:addr": "uir_adr",
        "uir_adr:ADRESA_KOD": "22659480"
      },
      "geometry": {
        "type": "Point",
        "coordinates": [
          14.4678655,
          50.072706
        ]
      },
      "id": "node/296766563"
    },
    {
      "type": "Feature",
      "properties": {
        "@id": "node/296766568",
        "addr:conscriptionnumber": "757",
        "addr:housenumber": "757/8",
        "addr:postcode": "10100",
        "addr:street": "Madridská",
        "addr:streetnumber": "8",
        "source:addr": "uir_adr",
        "uir_adr:ADRESA_KOD": "22663461"
      },
      "geometry": {
        "type": "Point",
        "coordinates": [
          14.456022,
          50.0703182
        ]
      },
      "id": "node/296766568"
    },
    {
      "type": "Feature",
      "properties": {
        "@id": "node/296766645",
        "addr:conscriptionnumber": "1501",
        "addr:housenumber": "1501/8",
        "addr:postcode": "10100",
        "addr:street": "Norská",
        "addr:streetnumber": "8",
        "source:addr": "uir_adr",
        "uir_adr:ADRESA_KOD": "22773827"
      },
      "geometry": {
        "type": "Point",
        "coordinates": [
          14.4553087,
          50.0707544
        ]
      },
      "id": "node/296766645"
    },
    {
      "type": "Feature",
      "properties": {
        "@id": "node/296766713",
        "addr:conscriptionnumber": "342",
        "addr:housenumber": "342/20",
        "addr:postcode": "10100",
        "addr:street": "Moskevská",
        "addr:streetnumber": "20",
        "source:addr": "uir_adr",
        "uir_adr:ADRESA_KOD": "22658076"
      },
      "geometry": {
        "type": "Point",
        "coordinates": [
          14.4515008,
          50.0708901
        ]
      },
      "id": "node/296766713"
    },
    {
      "type": "Feature",
      "properties": {
        "@id": "node/296767155",
        "addr:conscriptionnumber": "319",
        "addr:housenumber": "319/9",
        "addr:postcode": "10100",
        "addr:street": "Moskevská",
        "addr:streetnumber": "9",
        "source:addr": "uir_adr",
        "uir_adr:ADRESA_KOD": "22657843"
      },
      "geometry": {
        "type": "Point",
        "coordinates": [
          14.4515399,
          50.0713019
        ]
      },
      "id": "node/296767155"
    },
    {
      "type": "Feature",
      "properties": {
        "@id": "node/296767236",
        "addr:conscriptionnumber": "741",
        "addr:housenumber": "741/11",
        "addr:postcode": "10100",
        "addr:street": "Orelská",
        "addr:streetnumber": "11",
        "source:addr": "uir_adr",
        "uir_adr:ADRESA_KOD": "22663258"
      },
      "geometry": {
        "type": "Point",
        "coordinates": [
          14.4570598,
          50.0678959
        ]
      },
      "id": "node/296767236"
    },
    {
      "type": "Feature",
      "properties": {
        "@id": "node/296767276",
        "addr:conscriptionnumber": "856",
        "addr:housenumber": "856/84",
        "addr:postcode": "10000",
        "addr:street": "Vršovická",
        "addr:streetnumber": "84",
        "source:addr": "uir_adr",
        "uir_adr:ADRESA_KOD": "22664815"
      },
      "geometry": {
        "type": "Point",
        "coordinates": [
          14.4750723,
          50.0702221
        ]
      },
      "id": "node/296767276"
    },
    {
      "type": "Feature",
      "properties": {
        "@id": "node/296767296",
        "addr:conscriptionnumber": "1143",
        "addr:housenumber": "1143/30",
        "addr:postcode": "10000",
        "addr:street": "Pod altánem",
        "addr:streetnumber": "30",
        "source:addr": "uir_adr",
        "uir_adr:ADRESA_KOD": "22668349"
      },
      "geometry": {
        "type": "Point",
        "coordinates": [
          14.4823837,
          50.0671273
        ]
      },
      "id": "node/296767296"
    },
    {
      "type": "Feature",
      "properties": {
        "@id": "node/296767314",
        "addr:conscriptionnumber": "820",
        "addr:housenumber": "820/4",
        "addr:postcode": "10100",
        "addr:street": "Madridská",
        "addr:streetnumber": "4",
        "source:addr": "uir_adr",
        "uir_adr:ADRESA_KOD": "22664319"
      },
      "geometry": {
        "type": "Point",
        "coordinates": [
          14.4556294,
          50.0703743
        ]
      },
      "id": "node/296767314"
    },
    {
      "type": "Feature",
      "properties": {
        "@id": "node/296767444",
        "addr:conscriptionnumber": "1403",
        "addr:housenumber": "1403/28",
        "addr:postcode": "10100",
        "addr:street": "Moskevská",
        "addr:streetnumber": "28",
        "source:addr": "uir_adr",
        "uir_adr:ADRESA_KOD": "22671579"
      },
      "geometry": {
        "type": "Point",
        "coordinates": [
          14.4512294,
          50.0701129
        ]
      },
      "id": "node/296767444"
    },
    {
      "type": "Feature",
      "properties": {
        "@id": "node/296767536",
        "addr:conscriptionnumber": "1243",
        "addr:housenumber": "1243/182",
        "addr:postcode": "10000",
        "addr:street": "Ruská",
        "addr:streetnumber": "182",
        "source:addr": "uir_adr",
        "uir_adr:ADRESA_KOD": "22669701"
      },
      "geometry": {
        "type": "Point",
        "coordinates": [
          14.4808046,
          50.0729294
        ]
      },
      "id": "node/296767536"
    },
    {
      "type": "Feature",
      "properties": {
        "@id": "node/296767542",
        "addr:conscriptionnumber": "1368",
        "addr:housenumber": "1368/11",
        "addr:place": "Vršovice",
        "addr:postcode": "10100",
        "addr:street": "náměstí Svatopluka Čecha",
        "addr:streetnumber": "11",
        "ref:ruian:addr": "22671188"
      },
      "geometry": {
        "type": "Point",
        "coordinates": [
          14.4606056,
          50.0689893
        ]
      },
      "id": "node/296767542"
    },
    {
      "type": "Feature",
      "properties": {
        "@id": "node/296767734",
        "addr:conscriptionnumber": "519",
        "addr:housenumber": "519/26",
        "addr:postcode": "10100",
        "addr:street": "Charkovská",
        "addr:streetnumber": "26",
        "source:addr": "uir_adr",
        "uir_adr:ADRESA_KOD": "22660216"
      },
      "geometry": {
        "type": "Point",
        "coordinates": [
          14.4503648,
          50.0706627
        ]
      },
      "id": "node/296767734"
    },
    {
      "type": "Feature",
      "properties": {
        "@id": "node/296767920",
        "addr:conscriptionnumber": "705",
        "addr:housenumber": "705/24",
        "addr:postcode": "10100",
        "addr:street": "Tolstého",
        "addr:streetnumber": "24",
        "source:addr": "uir_adr",
        "uir_adr:ADRESA_KOD": "22662782"
      },
      "geometry": {
        "type": "Point",
        "coordinates": [
          14.4611466,
          50.0725401
        ]
      },
      "id": "node/296767920"
    },
    {
      "type": "Feature",
      "properties": {
        "@id": "node/296767943",
        "addr:conscriptionnumber": "1454",
        "addr:housenumber": "1454/10",
        "addr:place": "Vršovice",
        "addr:postcode": "10100",
        "addr:street": "Tachlovická",
        "addr:streetnumber": "10",
        "ref:ruian:addr": "22672184"
      },
      "geometry": {
        "type": "Point",
        "coordinates": [
          14.4646242,
          50.0614136
        ]
      },
      "id": "node/296767943"
    },
    {
      "type": "Feature",
      "properties": {
        "@id": "node/296768007",
        "addr:conscriptionnumber": "474",
        "addr:housenumber": "474/15a",
        "addr:postcode": "10000",
        "addr:street": "Bělocerkevská",
        "addr:streetnumber": "15a",
        "source:addr": "uir_adr",
        "uir_adr:ADRESA_KOD": "22659676"
      },
      "geometry": {
        "type": "Point",
        "coordinates": [
          14.4697961,
          50.0709886
        ]
      },
      "id": "node/296768007"
    },
    {
      "type": "Feature",
      "properties": {
        "@id": "node/296768222",
        "addr:conscriptionnumber": "860",
        "addr:housenumber": "860/49",
        "addr:postcode": "10000",
        "addr:street": "Vršovická",
        "addr:streetnumber": "49",
        "source:addr": "uir_adr",
        "uir_adr:ADRESA_KOD": "22664882"
      },
      "geometry": {
        "type": "Point",
        "coordinates": [
          14.4598744,
          50.067391
        ]
      },
      "id": "node/296768222"
    },
    {
      "type": "Feature",
      "properties": {
        "@id": "node/296768274",
        "addr:conscriptionnumber": "1273",
        "addr:housenumber": "1273/2",
        "addr:postcode": "10000",
        "addr:street": "Litevská",
        "addr:streetnumber": "2",
        "source:addr": "uir_adr",
        "uir_adr:ADRESA_KOD": "22670033"
      },
      "geometry": {
        "type": "Point",
        "coordinates": [
          14.4773778,
          50.0715387
        ]
      },
      "id": "node/296768274"
    },
    {
      "type": "Feature",
      "properties": {
        "@id": "node/296768373",
        "addr:conscriptionnumber": "1168",
        "addr:housenumber": "1168/17",
        "addr:postcode": "10000",
        "addr:street": "Karpatská",
        "addr:streetnumber": "17",
        "source:addr": "uir_adr",
        "uir_adr:ADRESA_KOD": "22668667"
      },
      "geometry": {
        "type": "Point",
        "coordinates": [
          14.4750269,
          50.0711228
        ]
      },
      "id": "node/296768373"
    },
    {
      "type": "Feature",
      "properties": {
        "@id": "node/296768510",
        "addr:conscriptionnumber": "849",
        "addr:housenumber": "849/23",
        "addr:postcode": "10100",
        "addr:street": "Oblouková",
        "addr:streetnumber": "23",
        "source:addr": "uir_adr",
        "uir_adr:ADRESA_KOD": "22664661"
      },
      "geometry": {
        "type": "Point",
        "coordinates": [
          14.4556619,
          50.0673097
        ]
      },
      "id": "node/296768510"
    },
    {
      "type": "Feature",
      "properties": {
        "@id": "node/296768560",
        "addr:conscriptionnumber": "385",
        "addr:housenumber": "385/15",
        "addr:postcode": "10100",
        "addr:street": "Charkovská",
        "addr:streetnumber": "15",
        "source:addr": "uir_adr",
        "uir_adr:ADRESA_KOD": "22658611"
      },
      "geometry": {
        "type": "Point",
        "coordinates": [
          14.4488028,
          50.0705157
        ]
      },
      "id": "node/296768560"
    },
    {
      "type": "Feature",
      "properties": {
        "@id": "node/296768617",
        "addr:conscriptionnumber": "1159",
        "addr:housenumber": "1159/13",
        "addr:postcode": "10000",
        "addr:street": "Kišiněvská",
        "addr:streetnumber": "13",
        "source:addr": "uir_adr",
        "uir_adr:ADRESA_KOD": "22668535"
      },
      "geometry": {
        "type": "Point",
        "coordinates": [
          14.471434,
          50.0701166
        ]
      },
      "id": "node/296768617"
    },
    {
      "type": "Feature",
      "properties": {
        "@id": "node/296768776",
        "addr:conscriptionnumber": "883",
        "addr:housenumber": "883/21",
        "addr:postcode": "10100",
        "addr:street": "Přípotoční",
        "addr:streetnumber": "21",
        "source:addr": "uir_adr",
        "uir_adr:ADRESA_KOD": "22665196"
      },
      "geometry": {
        "type": "Point",
        "coordinates": [
          14.4590889,
          50.0654522
        ]
      },
      "id": "node/296768776"
    },
    {
      "type": "Feature",
      "properties": {
        "@id": "node/296768866",
        "addr:conscriptionnumber": "441",
        "addr:housenumber": "441/8",
        "addr:postcode": "10100",
        "addr:street": "Černomořská",
        "addr:streetnumber": "8",
        "source:addr": "uir_adr",
        "uir_adr:ADRESA_KOD": "22659277"
      },
      "geometry": {
        "type": "Point",
        "coordinates": [
          14.4494793,
          50.0703849
        ]
      },
      "id": "node/296768866"
    },
    {
      "type": "Feature",
      "properties": {
        "@id": "node/296768922",
        "addr:conscriptionnumber": "1316",
        "addr:housenumber": "1316/23",
        "addr:place": "Vršovice",
        "addr:postcode": "10000",
        "addr:street": "Kubánské náměstí",
        "addr:streetnumber": "23",
        "ref:ruian:addr": "22670556"
      },
      "geometry": {
        "type": "Point",
        "coordinates": [
          14.4781383,
          50.0700175
        ]
      },
      "id": "node/296768922"
    },
    {
      "type": "Feature",
      "properties": {
        "@id": "node/296768968",
        "addr:conscriptionnumber": "428",
        "addr:housenumber": "428/21",
        "addr:postcode": "10100",
        "addr:street": "Charkovská",
        "addr:streetnumber": "21",
        "source:addr": "uir_adr",
        "uir_adr:ADRESA_KOD": "22659111"
      },
      "geometry": {
        "type": "Point",
        "coordinates": [
          14.4496677,
          50.0706919
        ]
      },
      "id": "node/296768968"
    },
    {
      "type": "Feature",
      "properties": {
        "@id": "node/296768985",
        "addr:conscriptionnumber": "307",
        "addr:housenumber": "307/3",
        "addr:postcode": "10100",
        "addr:street": "Slovinská",
        "addr:streetnumber": "3",
        "source:addr": "uir_adr",
        "uir_adr:ADRESA_KOD": "22657711"
      },
      "geometry": {
        "type": "Point",
        "coordinates": [
          14.4579313,
          50.068835
        ]
      },
      "id": "node/296768985"
    },
    {
      "type": "Feature",
      "properties": {
        "@id": "node/296769090",
        "addr:conscriptionnumber": "694",
        "addr:housenumber": "694/79",
        "addr:postcode": "10000",
        "addr:street": "Vršovická",
        "addr:streetnumber": "79",
        "source:addr": "uir_adr",
        "uir_adr:ADRESA_KOD": "22662626"
      },
      "geometry": {
        "type": "Point",
        "coordinates": [
          14.4728684,
          50.0701341
        ]
      },
      "id": "node/296769090"
    },
    {
      "type": "Feature",
      "properties": {
        "@id": "node/296769269",
        "addr:conscriptionnumber": "1333",
        "addr:housenumber": "1333/6",
        "addr:place": "Vršovice",
        "addr:postcode": "10000",
        "addr:street": "Kubánské náměstí",
        "addr:streetnumber": "6",
        "ref:ruian:addr": "22670734"
      },
      "geometry": {
        "type": "Point",
        "coordinates": [
          14.4783013,
          50.0716381
        ]
      },
      "id": "node/296769269"
    },
    {
      "type": "Feature",
      "properties": {
        "@id": "node/296769283",
        "addr:conscriptionnumber": "271",
        "addr:housenumber": "271/3",
        "addr:postcode": "10100",
        "addr:street": "Novgorodská",
        "addr:streetnumber": "3",
        "source:addr": "uir_adr",
        "uir_adr:ADRESA_KOD": "22657371"
      },
      "geometry": {
        "type": "Point",
        "coordinates": [
          14.450734,
          50.0644333
        ]
      },
      "id": "node/296769283"
    },
    {
      "type": "Feature",
      "properties": {
        "@id": "node/296769373",
        "addr:conscriptionnumber": "245",
        "addr:housenumber": "245/14",
        "addr:postcode": "10100",
        "addr:street": "Donská",
        "addr:streetnumber": "14",
        "source:addr": "uir_adr",
        "uir_adr:ADRESA_KOD": "22657151"
      },
      "geometry": {
        "type": "Point",
        "coordinates": [
          14.447224,
          50.0711749
        ]
      },
      "id": "node/296769373"
    },
    {
      "type": "Feature",
      "properties": {
        "@id": "node/296769762",
        "addr:conscriptionnumber": "720",
        "addr:housenumber": "720/29",
        "addr:postcode": "10100",
        "addr:street": "Bulharská",
        "addr:streetnumber": "29",
        "source:addr": "uir_adr",
        "uir_adr:ADRESA_KOD": "22662952"
      },
      "geometry": {
        "type": "Point",
        "coordinates": [
          14.4613839,
          50.0718894
        ]
      },
      "id": "node/296769762"
    }
  ]
}